<?xml version="1.0" encoding="UTF-8"?>
<response xmlns:xsd="http://www.w3.org/2001/XMLSchema" xmlns:xsi="http://www.w3.org/2001/XMLSchema-instance" version="1.3" xsi:noNamespaceSchemaLocation="https://aviationweather.gov/data/schema/metar1_3.xsd">
  <request_index>1720284363</request_index>
  <data_source name="metars" />
  <request type="retrieve" />
  <errors />
  <warnings />
  <time_taken_ms>4</time_taken_ms>
  <data num_results="1">
    <METAR>
      <raw_text>KVNY 061551Z 10005KT 8SM CLR 23/17 A2985 RMK AO2 SLP097 T02280172 $</raw_text>
      <station_id>KVNY</station_id>
      <observation_time>2024-07-06T15:51:00Z</observation_time>
      <latitude>34.2121</latitude>
      <longitude>-118.491</longitude>
      <temp_c>22.8</temp_c>
      <dewpoint_c>17.2</dewpoint_c>
      <wind_dir_degrees>100</wind_dir_degrees>
      <wind_speed_kt>5</wind_speed_kt>
      <visibility_statute_mi>8</visibility_statute_mi>
      <altim_in_hg>29.85</altim_in_hg>
      <sea_level_pressure_mb>1009.7</sea_level_pressure_mb>
      <quality_control_flags>
        <auto_station>TRUE</auto_station>
        <maintenance_indicator_on>TRUE</maintenance_indicator_on>
      </quality_control_flags>
      <sky_condition sky_cover="CLR"/>
      <flight_category>VFR</flight_category>
      <metar_type>METAR</metar_type>
      <elevation_m>241</elevation_m>
    </METAR>
  </data>
</response>
